SL-14 R/B               
1 16792U 86046B   25357.89623720  .00000535  00000+0  58870-4 0  9992
2 16792  82.4816 151.7777 0024476 116.9939 243.3780 14.85496216115158
SL-14 R/B               
1 16882U 86055B   25357.81722312  .00000430  00000+0  46863-4 0  9994
2 16882  82.5195 197.9635 0017921 219.9569 150.3781 14.85540748108109
AJISAI (EGS)            
1 16908U 86061A   25357.97658632 -.00000092  00000+0  41867-4 0  9994
2 16908  50.0112 326.1648 0011317  94.1207 292.9028 12.44514390458575
COSMOS 1812             
1 17295U 87003A   25357.26683100  .00109215  00000+0  64942-3 0  9995
2 17295  82.4878 280.6041 0006515  71.8157 288.3817 15.77617580132314
SL-14 R/B               
1 17567U 87024B   25357.48578728  .00000519  00000+0  56439-4 0  9993
2 17567  82.5277 164.3593 0019015 149.1516 211.0823 14.86034499 76810
COSMOS 1833             
1 17589U 87027A   25357.76118040  .00000267  00000+0  16874-3 0  9996
2 17589  70.9158 125.6084 0023010 316.3273  43.6026 14.13027206999586
SL-16 R/B               
1 17590U 87027B   25357.67255718  .00000047  00000+0  47326-4 0  9995
2 17590  71.0039  76.6813 0007222 248.1451 111.8905 14.17156502  4576
SL-14 R/B               
1 17912U 87038B   25357.77840947  .00000452  00000+0  49632-4 0  9992
2 17912  82.5009   8.3028 0020657  58.2281 302.0943 14.85270791 67966
COSMOS 1844             
1 17973U 87041A   25357.87654324  .00000317  00000+0  18975-3 0  9991
2 17973  70.8966 194.0813 0029665 139.4621 220.8718 14.14530462992867
SL-14 R/B               
1 18153U 87055B   25357.90306132  .00000487  00000+0  53502-4 0  9996
2 18153  82.4991  60.4677 0019164 263.5987  96.3046 14.85532051 58683
COSMOS 1867             
1 18187U 87060A   25357.85070074 -.00000044  00000+0  21111-4 0  9997
2 18187  65.0088 159.0870 0013648 272.1885  87.7636 14.31487767  9081
SL-14 R/B               
1 18749U 88001B   25357.69132710  .00000483  00000+0  53072-4 0  9992
2 18749  82.5135 266.8474 0019310 126.5518 233.7479 14.85434632 30743
