CCSDS_OMM_VERS = 2.0
CREATION_DATE  = 
ORIGINATOR     = 

OBJECT_NAME    = SL-14 R/B
OBJECT_ID      = 1986-046B
CENTER_NAME    = EARTH
REF_FRAME      = TEME
TIME_SYSTEM    = UTC
MEAN_ELEMENT_THEORY = SGP/SGP4

EPOCH          = 2025-12-23T21:30:34.894080
MEAN_MOTION    = 14.85496216
ECCENTRICITY   = .00244762
INCLINATION    = 82.4816
RA_OF_ASC_NODE = 151.7777
ARG_OF_PERICENTER = 116.9939
MEAN_ANOMALY   = 243.3780

EPHEMERIS_TYPE = 0
CLASSIFICATION_TYPE = U
NORAD_CAT_ID   = 16792
ELEMENT_SET_NO = 999
REV_AT_EPOCH   = 11515
BSTAR          = .58869745E-4
MEAN_MOTION_DOT = .535E-5
MEAN_MOTION_DDOT = 0

CCSDS_OMM_VERS = 2.0
CREATION_DATE  = 
ORIGINATOR     = 

OBJECT_NAME    = SL-14 R/B
OBJECT_ID      = 1986-055B
CENTER_NAME    = EARTH
REF_FRAME      = TEME
TIME_SYSTEM    = UTC
MEAN_ELEMENT_THEORY = SGP/SGP4

EPOCH          = 2025-12-23T19:36:48.077568
MEAN_MOTION    = 14.85540748
ECCENTRICITY   = .00179219
INCLINATION    = 82.5195
RA_OF_ASC_NODE = 197.9635
ARG_OF_PERICENTER = 219.9569
MEAN_ANOMALY   = 150.3781

EPHEMERIS_TYPE = 0
CLASSIFICATION_TYPE = U
NORAD_CAT_ID   = 16882
ELEMENT_SET_NO = 999
REV_AT_EPOCH   = 10810
BSTAR          = .46862933E-4
MEAN_MOTION_DOT = .43E-5
MEAN_MOTION_DDOT = 0

CCSDS_OMM_VERS = 2.0
CREATION_DATE  = 
ORIGINATOR     = 

OBJECT_NAME    = AJISAI (EGS)
OBJECT_ID      = 1986-061A
CENTER_NAME    = EARTH
REF_FRAME      = TEME
TIME_SYSTEM    = UTC
MEAN_ELEMENT_THEORY = SGP/SGP4

EPOCH          = 2025-12-23T23:26:17.058048
MEAN_MOTION    = 12.44514390
ECCENTRICITY   = .00113171
INCLINATION    = 50.0112
RA_OF_ASC_NODE = 326.1648
ARG_OF_PERICENTER = 94.1207
MEAN_ANOMALY   = 292.9028

EPHEMERIS_TYPE = 0
CLASSIFICATION_TYPE = U
NORAD_CAT_ID   = 16908
ELEMENT_SET_NO = 999
REV_AT_EPOCH   = 45857
BSTAR          = .41866604E-4
MEAN_MOTION_DOT = -.92E-6
MEAN_MOTION_DDOT = 0

CCSDS_OMM_VERS = 2.0
CREATION_DATE  = 
ORIGINATOR     = 

OBJECT_NAME    = COSMOS 1812
OBJECT_ID      = 1987-003A
CENTER_NAME    = EARTH
REF_FRAME      = TEME
TIME_SYSTEM    = UTC
MEAN_ELEMENT_THEORY = SGP/SGP4

EPOCH          = 2025-12-23T06:24:14.198400
MEAN_MOTION    = 15.77617580
ECCENTRICITY   = .00065156
INCLINATION    = 82.4878
RA_OF_ASC_NODE = 280.6041
ARG_OF_PERICENTER = 71.8157
MEAN_ANOMALY   = 288.3817

EPHEMERIS_TYPE = 0
CLASSIFICATION_TYPE = U
NORAD_CAT_ID   = 17295
ELEMENT_SET_NO = 999
REV_AT_EPOCH   = 13231
BSTAR          = .64941812E-3
MEAN_MOTION_DOT = .109215E-2
MEAN_MOTION_DDOT = 0

CCSDS_OMM_VERS = 2.0
CREATION_DATE  = 
ORIGINATOR     = 

OBJECT_NAME    = SL-14 R/B
OBJECT_ID      = 1987-024B
CENTER_NAME    = EARTH
REF_FRAME      = TEME
TIME_SYSTEM    = UTC
MEAN_ELEMENT_THEORY = SGP/SGP4

EPOCH          = 2025-12-23T11:39:32.020992
MEAN_MOTION    = 14.86034499
ECCENTRICITY   = .00190152
INCLINATION    = 82.5277
RA_OF_ASC_NODE = 164.3593
ARG_OF_PERICENTER = 149.1516
MEAN_ANOMALY   = 211.0823

EPHEMERIS_TYPE = 0
CLASSIFICATION_TYPE = U
NORAD_CAT_ID   = 17567
ELEMENT_SET_NO = 999
REV_AT_EPOCH   = 7681
BSTAR          = .56438556E-4
MEAN_MOTION_DOT = .519E-5
MEAN_MOTION_DDOT = 0

CCSDS_OMM_VERS = 2.0
CREATION_DATE  = 
ORIGINATOR     = 

OBJECT_NAME    = COSMOS 1833
OBJECT_ID      = 1987-027A
CENTER_NAME    = EARTH
REF_FRAME      = TEME
TIME_SYSTEM    = UTC
MEAN_ELEMENT_THEORY = SGP/SGP4

EPOCH          = 2025-12-23T18:16:05.986560
MEAN_MOTION    = 14.13027206
ECCENTRICITY   = .00230102
INCLINATION    = 70.9158
RA_OF_ASC_NODE = 125.6084
ARG_OF_PERICENTER = 316.3273
MEAN_ANOMALY   = 43.6026

EPHEMERIS_TYPE = 0
CLASSIFICATION_TYPE = U
NORAD_CAT_ID   = 17589
ELEMENT_SET_NO = 999
REV_AT_EPOCH   = 99958
BSTAR          = .168739E-3
MEAN_MOTION_DOT = .267E-5
MEAN_MOTION_DDOT = 0

CCSDS_OMM_VERS = 2.0
CREATION_DATE  = 
ORIGINATOR     = 

OBJECT_NAME    = SL-16 R/B
OBJECT_ID      = 1987-027B
CENTER_NAME    = EARTH
REF_FRAME      = TEME
TIME_SYSTEM    = UTC
MEAN_ELEMENT_THEORY = SGP/SGP4

EPOCH          = 2025-12-23T16:08:28.940352
MEAN_MOTION    = 14.17156502
ECCENTRICITY   = .0007222
INCLINATION    = 71.0039
RA_OF_ASC_NODE = 76.6813
ARG_OF_PERICENTER = 248.1451
MEAN_ANOMALY   = 111.8905

EPHEMERIS_TYPE = 0
CLASSIFICATION_TYPE = U
NORAD_CAT_ID   = 17590
ELEMENT_SET_NO = 999
REV_AT_EPOCH   = 457
BSTAR          = .47325782E-4
MEAN_MOTION_DOT = .47E-6
MEAN_MOTION_DDOT = 0

CCSDS_OMM_VERS = 2.0
CREATION_DATE  = 
ORIGINATOR     = 

OBJECT_NAME    = SL-14 R/B
OBJECT_ID      = 1987-038B
CENTER_NAME    = EARTH
REF_FRAME      = TEME
TIME_SYSTEM    = UTC
MEAN_ELEMENT_THEORY = SGP/SGP4

EPOCH          = 2025-12-23T18:40:54.578208
MEAN_MOTION    = 14.85270791
ECCENTRICITY   = .00206578
INCLINATION    = 82.5009
RA_OF_ASC_NODE = 8.3028
ARG_OF_PERICENTER = 58.2281
MEAN_ANOMALY   = 302.0943

EPHEMERIS_TYPE = 0
CLASSIFICATION_TYPE = U
NORAD_CAT_ID   = 17912
ELEMENT_SET_NO = 999
REV_AT_EPOCH   = 6796
BSTAR          = .49631959E-4
MEAN_MOTION_DOT = .452E-5
MEAN_MOTION_DDOT = 0

CCSDS_OMM_VERS = 2.0
CREATION_DATE  = 
ORIGINATOR     = 

OBJECT_NAME    = COSMOS 1844
OBJECT_ID      = 1987-041A
CENTER_NAME    = EARTH
REF_FRAME      = TEME
TIME_SYSTEM    = UTC
MEAN_ELEMENT_THEORY = SGP/SGP4

EPOCH          = 2025-12-23T21:02:13.335936
MEAN_MOTION    = 14.14530462
ECCENTRICITY   = .00296651
INCLINATION    = 70.8966
RA_OF_ASC_NODE = 194.0813
ARG_OF_PERICENTER = 139.4621
MEAN_ANOMALY   = 220.8718

EPHEMERIS_TYPE = 0
CLASSIFICATION_TYPE = U
NORAD_CAT_ID   = 17973
ELEMENT_SET_NO = 999
REV_AT_EPOCH   = 99286
BSTAR          = .18974599E-3
MEAN_MOTION_DOT = .317E-5
MEAN_MOTION_DDOT = 0

CCSDS_OMM_VERS = 2.0
CREATION_DATE  = 
ORIGINATOR     = 

OBJECT_NAME    = SL-14 R/B
OBJECT_ID      = 1987-055B
CENTER_NAME    = EARTH
REF_FRAME      = TEME
TIME_SYSTEM    = UTC
MEAN_ELEMENT_THEORY = SGP/SGP4

EPOCH          = 2025-12-23T21:40:24.498048
MEAN_MOTION    = 14.85532051
ECCENTRICITY   = .00191642
INCLINATION    = 82.4991
RA_OF_ASC_NODE = 60.4677
ARG_OF_PERICENTER = 263.5987
MEAN_ANOMALY   = 96.3046

EPHEMERIS_TYPE = 0
CLASSIFICATION_TYPE = U
NORAD_CAT_ID   = 18153
ELEMENT_SET_NO = 999
REV_AT_EPOCH   = 5868
BSTAR          = .5350232E-4
MEAN_MOTION_DOT = .487E-5
MEAN_MOTION_DDOT = 0

CCSDS_OMM_VERS = 2.0
CREATION_DATE  = 
ORIGINATOR     = 

OBJECT_NAME    = COSMOS 1867
OBJECT_ID      = 1987-060A
CENTER_NAME    = EARTH
REF_FRAME      = TEME
TIME_SYSTEM    = UTC
MEAN_ELEMENT_THEORY = SGP/SGP4

EPOCH          = 2025-12-23T20:25:00.543936
MEAN_MOTION    = 14.31487767
ECCENTRICITY   = .00136487
INCLINATION    = 65.0088
RA_OF_ASC_NODE = 159.0870
ARG_OF_PERICENTER = 272.1885
MEAN_ANOMALY   = 87.7636

EPHEMERIS_TYPE = 0
CLASSIFICATION_TYPE = U
NORAD_CAT_ID   = 18187
ELEMENT_SET_NO = 999
REV_AT_EPOCH   = 908
BSTAR          = .21110816E-4
MEAN_MOTION_DOT = -.44E-6
MEAN_MOTION_DDOT = 0

CCSDS_OMM_VERS = 2.0
CREATION_DATE  = 
ORIGINATOR     = 

OBJECT_NAME    = SL-14 R/B
OBJECT_ID      = 1988-001B
CENTER_NAME    = EARTH
REF_FRAME      = TEME
TIME_SYSTEM    = UTC
MEAN_ELEMENT_THEORY = SGP/SGP4

EPOCH          = 2025-12-23T16:35:30.661440
MEAN_MOTION    = 14.85434632
ECCENTRICITY   = .00193108
INCLINATION    = 82.5135
RA_OF_ASC_NODE = 266.8474
ARG_OF_PERICENTER = 126.5518
MEAN_ANOMALY   = 233.7479

EPHEMERIS_TYPE = 0
CLASSIFICATION_TYPE = U
NORAD_CAT_ID   = 18749
ELEMENT_SET_NO = 999
REV_AT_EPOCH   = 3074
BSTAR          = .53072495E-4
MEAN_MOTION_DOT = .483E-5
MEAN_MOTION_DDOT = 0

